OBJECT_NAME,OBJECT_ID,EPOCH,MEAN_MOTION,ECCENTRICITY,INCLINATION,RA_OF_ASC_NODE,ARG_OF_PERICENTER,MEAN_ANOMALY,EPHEMERIS_TYPE,CLASSIFICATION_TYPE,NORAD_CAT_ID,ELEMENT_SET_NO,REV_AT_EPOCH,BSTAR,MEAN_MOTION_DOT,MEAN_MOTION_DDOT
IRIDIUM 156,2018-061H,2026-07-13T15:06:26.483616,14.34217490,.0002077,86.3935,45.6681,91.6329,268.5105,0,U,43576,999,41716,.11915E-4,.53E-6,0
IRIDIUM 164,2018-061J,2026-07-13T16:19:30.640800,14.34217861,.0002307,86.3938,45.6880,89.1458,271.0002,0,U,43577,999,41721,.44452E-4,.144E-5,0
IRIDIUM 159,2018-061K,2026-07-13T15:33:50.427648,14.34217206,.0002028,86.3935,45.6375,84.8160,275.3267,0,U,43578,999,41717,.20476E-5,.26E-6,0
IRIDIUM 180,2019-002A,2026-07-13T20:34:31.006848,14.34218152,.0002192,86.3990,342.4481,90.9575,269.1872,0,U,43922,999,39281,.32459E-4,.111E-5,0
IRIDIUM 176,2019-002B,2026-07-13T20:53:23.000640,14.72248112,.0002337,86.6110,342.3823,89.8177,270.3308,0,U,43923,999,40317,.60649E-4,.407E-5,0
IRIDIUM 168,2019-002C,2026-07-13T20:25:22.855872,14.34216677,.0002232,86.3993,342.5287,92.1995,267.9456,0,U,43924,999,39279,-.28253E-4,-.59E-6,0
IRIDIUM 173,2019-002D,2026-07-13T20:07:06.947040,14.34216652,.0002015,86.3987,342.4223,91.7650,268.3777,0,U,43925,999,39277,-.35385E-4,-.79E-6,0
IRIDIUM 169,2019-002E,2026-07-13T13:03:46.461600,14.38613087,.0001834,86.4219,14.1703,101.8850,258.2554,0,U,43926,999,39401,.36535E-5,.31E-6,0
IRIDIUM 172,2019-002F,2026-07-13T19:57:58.999104,14.34217556,.0002175,86.3987,342.4324,90.3710,269.7735,0,U,43927,999,39278,.56594E-5,.36E-6,0
IRIDIUM 175,2019-002G,2026-07-13T18:05:45.631104,14.43626737,.0005253,86.4512,279.4166,118.1053,242.0680,0,U,43928,999,40281,.45133E-4,.173E-5,0
IRIDIUM 171,2019-002H,2026-07-13T21:11:02.967936,14.34217532,.0002211,86.3996,342.7202,94.8588,265.2860,0,U,43929,999,39278,.4735E-5,.33E-6,0
IRIDIUM 170,2019-002J,2026-07-13T19:24:23.706144,14.72248578,.0002281,86.6109,342.4104,86.2502,273.8976,0,U,43930,999,40317,.59533E-4,.4E-5,0
IRIDIUM 167,2019-002K,2026-07-13T19:21:26.949024,14.34217697,.000227,86.3990,342.4657,98.9559,261.1894,0,U,43931,999,39277,.86784E-5,.44E-6,0
IRIDIUM 181,2023-068S,2026-07-13T15:49:50.216736,14.43311757,.0002407,86.4475,45.7203,83.7546,276.3929,0,U,56726,999,16625,.47812E-4,.181E-5,0
IRIDIUM 177,2023-068T,2026-07-13T19:47:43.234080,14.80029271,.000214,86.1985,316.1443,94.4975,265.6490,0,U,56727,999,17030,.70959E-4,.563E-5,0
IRIDIUM 174,2023-068U,2026-07-13T20:44:21.707232,14.72257255,.0002008,86.6118,342.5372,86.6608,273.4839,0,U,56728,999,16994,.62772E-4,.42E-5,0
IRIDIUM 178,2023-068V,2026-07-13T21:09:13.902624,14.80025801,.0002317,86.6535,14.2024,90.6394,269.5093,0,U,56729,999,17031,.21223E-4,.187E-5,0
IRIDIUM 179,2023-068W,2026-07-13T14:32:05.428032,14.80033242,.0002314,86.6766,23.3754,93.6017,266.5469,0,U,56730,999,17027,.30715E-4,.259E-5,0
